{
  "norad_id": 59874,
  "name": "STARLINK-31933",
  "history": [
    {
      "epoch": "2026-04-15T20:57:42.662016Z",
      "apogee_km": 483.4804053386597,
      "perigee_km": 482.6351061447531,
      "latitude_deg": -1.0286577772238325e-05,
      "longitude_deg": -90.51679735912376,
      "height_km": 482.81270704619806,
      "semi_major_axis_km": 6861.194755741706,
      "eccentricity": 6.16e-05,
      "inclination_deg": 43.0036,
      "raan_deg": 67.9402,
      "arg_perigee_deg": 272.911,
      "mean_anomaly_deg": 87.1671,
      "mean_motion_rev_day": 15.27577108
    },
    {
      "epoch": "2026-04-16T14:13:26.001120Z",
      "apogee_km": 483.61704616105,
      "perigee_km": 482.5055320382153,
      "latitude_deg": -1.2969846277784452e-05,
      "longitude_deg": 5.781094817362272,
      "height_km": 482.8858046064537,
      "semi_major_axis_km": 6861.198289099632,
      "eccentricity": 8.1e-05,
      "inclination_deg": 43.0037,
      "raan_deg": 63.8776,
      "arg_perigee_deg": 265.0534,
      "mean_anomaly_deg": 95.0225,
      "mean_motion_rev_day": 15.27575928
    },
    {
      "epoch": "2026-04-17T13:45:46.836864Z",
      "apogee_km": 483.61861991909245,
      "perigee_km": 482.51259405884593,
      "latitude_deg": 7.836143025795525e-06,
      "longitude_deg": 6.189285486243449,
      "height_km": 482.90372656433124,
      "semi_major_axis_km": 6861.202606988969,
      "eccentricity": 8.06e-05,
      "inclination_deg": 43.0043,
      "raan_deg": 58.3393,
      "arg_perigee_deg": 263.6183,
      "mean_anomaly_deg": 96.4577,
      "mean_motion_rev_day": 15.27574486
    },
    {
      "epoch": "2026-04-18T13:18:06.742080Z",
      "apogee_km": 484.313972026569,
      "perigee_km": 481.784938699122,
      "latitude_deg": -9.698530435783555e-06,
      "longitude_deg": 6.597422145863449,
      "height_km": 482.97990323211496,
      "semi_major_axis_km": 6861.186455362846,
      "eccentricity": 0.0001843,
      "inclination_deg": 43.0109,
      "raan_deg": 52.7971,
      "arg_perigee_deg": 263.0866,
      "mean_anomaly_deg": 96.9776,
      "mean_motion_rev_day": 15.2757988
    },
    {
      "epoch": "2026-04-19T12:50:28.369248Z",
      "apogee_km": 483.6097360205031,
      "perigee_km": 482.5307425700512,
      "latitude_deg": 5.4228229468042966e-05,
      "longitude_deg": 7.003650047446041,
      "height_km": 482.7835569361191,
      "semi_major_axis_km": 6861.207239295277,
      "eccentricity": 7.863e-05,
      "inclination_deg": 43.0066,
      "raan_deg": 47.2601,
      "arg_perigee_deg": 276.7685,
      "mean_anomaly_deg": 83.3078,
      "mean_motion_rev_day": 15.27572939
    },
    {
      "epoch": "2026-04-20T12:22:50.024928Z",
      "apogee_km": 483.4500042092286,
      "perigee_km": 482.7124232512533,
      "latitude_deg": 1.3242548985473354e-05,
      "longitude_deg": 7.408545920035891,
      "height_km": 482.80047155905686,
      "semi_major_axis_km": 6861.218213730241,
      "eccentricity": 5.375e-05,
      "inclination_deg": 43.0047,
      "raan_deg": 41.722,
      "arg_perigee_deg": 278.9233,
      "mean_anomaly_deg": 81.1558,
      "mean_motion_rev_day": 15.27569274
    },
    {
      "epoch": "2026-04-21T11:55:09.600960Z",
      "apogee_km": 483.61575038021965,
      "perigee_km": 482.49380830046084,
      "latitude_deg": -7.667316137900219e-06,
      "longitude_deg": 7.820751474432822,
      "height_km": 482.66687616907734,
      "semi_major_axis_km": 6861.19177934034,
      "eccentricity": 8.176e-05,
      "inclination_deg": 43.0066,
      "raan_deg": 36.1825,
      "arg_perigee_deg": 287.087,
      "mean_anomaly_deg": 72.9892,
      "mean_motion_rev_day": 15.27578102
    },
    {
      "epoch": "2026-04-22T11:27:31.111488Z",
      "apogee_km": 483.905455359969,
      "perigee_km": 482.2510791347304,
      "latitude_deg": 4.055547978985864e-05,
      "longitude_deg": 8.225948163857986,
      "height_km": 482.7617347969569,
      "semi_major_axis_km": 6861.215267247349,
      "eccentricity": 0.00012056,
      "inclination_deg": 43.0061,
      "raan_deg": 30.644,
      "arg_perigee_deg": 276.5079,
      "mean_anomaly_deg": 83.5636,
      "mean_motion_rev_day": 15.27570258
    },
    {
      "epoch": "2026-04-23T10:59:52.055232Z",
      "apogee_km": 483.80564870104354,
      "perigee_km": 482.3802967865049,
      "latitude_deg": 5.9465328037052756e-05,
      "longitude_deg": 8.632582063206632,
      "height_km": 482.7237860867377,
      "semi_major_axis_km": 6861.229972743774,
      "eccentricity": 0.00010387,
      "inclination_deg": 43.0045,
      "raan_deg": 25.1046,
      "arg_perigee_deg": 281.8278,
      "mean_anomaly_deg": 78.2458,
      "mean_motion_rev_day": 15.27565347
    },
    {
      "epoch": "2026-04-24T10:32:12.610176Z",
      "apogee_km": 483.36798683131656,
      "perigee_km": 482.7902724332016,
      "latitude_deg": -1.915062555452553e-05,
      "longitude_deg": 9.040737129731173,
      "height_km": 482.7279782673377,
      "semi_major_axis_km": 6861.216129632259,
      "eccentricity": 4.21e-05,
      "inclination_deg": 43.0019,
      "raan_deg": 19.5652,
      "arg_perigee_deg": 296.1196,
      "mean_anomaly_deg": 63.9612,
      "mean_motion_rev_day": 15.2756997
    },
    {
      "epoch": "2026-04-25T10:04:32.874816Z",
      "apogee_km": 483.5536221635184,
      "perigee_km": 482.6314729123296,
      "latitude_deg": -9.725215827228913e-06,
      "longitude_deg": 9.45099981741772,
      "height_km": 482.7802749729536,
      "semi_major_axis_km": 6861.229547537924,
      "eccentricity": 6.72e-05,
      "inclination_deg": 43.0076,
      "raan_deg": 14.0266,
      "arg_perigee_deg": 281.153,
      "mean_anomaly_deg": 78.9246,
      "mean_motion_rev_day": 15.27565489
    },
    {
      "epoch": "2026-04-26T22:10:09.122880Z",
      "apogee_km": 483.93567662731766,
      "perigee_km": 482.20349641248504,
      "latitude_deg": -1.1978518687329317e-05,
      "longitude_deg": 178.07636093377417,
      "height_km": 482.9561405044119,
      "semi_major_axis_km": 6861.206586519901,
      "eccentricity": 0.00012623,
      "inclination_deg": 43.0028,
      "raan_deg": 5.5353,
      "arg_perigee_deg": 262.7248,
      "mean_anomaly_deg": 97.346,
      "mean_motion_rev_day": 15.27573157
    },
    {
      "epoch": "2026-04-27T01:18:27.334656Z",
      "apogee_km": 484.0419567926692,
      "perigee_km": 482.0651105761044,
      "latitude_deg": 4.5183746458902994e-05,
      "longitude_deg": 130.13255039130817,
      "height_km": 483.49319498774605,
      "semi_major_axis_km": 6861.1905336843865,
      "eccentricity": 0.00014406,
      "inclination_deg": 43.0015,
      "raan_deg": 4.7962,
      "arg_perigee_deg": 227.8603,
      "mean_anomaly_deg": 132.2127,
      "mean_motion_rev_day": 15.27578518
    },
    {
      "epoch": "2026-04-28T08:41:36.309120Z",
      "apogee_km": 483.9229824194308,
      "perigee_km": 482.243355722042,
      "latitude_deg": 4.0486867328403174e-05,
      "longitude_deg": 10.671382734596676,
      "height_km": 482.83470753210554,
      "semi_major_axis_km": 6861.220169070736,
      "eccentricity": 0.0001224,
      "inclination_deg": 43.0013,
      "raan_deg": 357.4114,
      "arg_perigee_deg": 271.7168,
      "mean_anomaly_deg": 88.3544,
      "mean_motion_rev_day": 15.27568621
    },
    {
      "epoch": "2026-04-29T08:14:01.688640Z",
      "apogee_km": 483.8941158670905,
      "perigee_km": 483.2760119435725,
      "latitude_deg": 1.5488745817537027e-05,
      "longitude_deg": 11.05943943012157,
      "height_km": 483.65084329276164,
      "semi_major_axis_km": 6861.722063905331,
      "eccentricity": 4.504e-05,
      "inclination_deg": 43.0024,
      "raan_deg": 351.872,
      "arg_perigee_deg": 200.2382,
      "mean_anomaly_deg": 159.8452,
      "mean_motion_rev_day": 15.27401025
    },
    {
      "epoch": "2026-04-30T15:37:04.576224Z",
      "apogee_km": 483.48295647168834,
      "perigee_km": 482.6172118854056,
      "latitude_deg": -1.4259768905446466e-05,
      "longitude_deg": -108.3763246727333,
      "height_km": 482.58836707683537,
      "semi_major_axis_km": 6861.187084178547,
      "eccentricity": 6.309e-05,
      "inclination_deg": 43.003,
      "raan_deg": 344.4872,
      "arg_perigee_deg": 303.3565,
      "mean_anomaly_deg": 56.7226,
      "mean_motion_rev_day": 15.2757967
    },
    {
      "epoch": "2026-05-02T00:34:20.696160Z",
      "apogee_km": 483.8837491473896,
      "perigee_km": 482.1629701291922,
      "latitude_deg": -1.2419749989576032e-05,
      "longitude_deg": 108.19561702034632,
      "height_km": 482.5707294290259,
      "semi_major_axis_km": 6861.160359638291,
      "eccentricity": 0.0001254,
      "inclination_deg": 43.0063,
      "raan_deg": 336.7297,
      "arg_perigee_deg": 285.4984,
      "mean_anomaly_deg": 74.5729,
      "mean_motion_rev_day": 15.27588595
    },
    {
      "epoch": "2026-05-03T20:30:44.325216Z",
      "apogee_km": 484.17535338751713,
      "perigee_km": 481.9729046151069,
      "latitude_deg": 1.405126535329894e-06,
      "longitude_deg": 156.95292516680868,
      "height_km": 482.718875596966,
      "semi_major_axis_km": 6861.211129001312,
      "eccentricity": 0.0001605,
      "inclination_deg": 43.0002,
      "raan_deg": 326.39,
      "arg_perigee_deg": 276.8925,
      "mean_anomaly_deg": 83.1744,
      "mean_motion_rev_day": 15.2757164
    },
    {
      "epoch": "2026-05-04T05:55:40.069920Z",
      "apogee_km": 483.82480218253204,
      "perigee_km": 482.24165576389896,
      "latitude_deg": -2.4191418217845676e-05,
      "longitude_deg": 13.119046744094424,
      "height_km": 482.64730093220413,
      "semi_major_axis_km": 6861.170228973215,
      "eccentricity": 0.00011537,
      "inclination_deg": 43.009,
      "raan_deg": 324.1751,
      "arg_perigee_deg": 281.915,
      "mean_anomaly_deg": 78.1572,
      "mean_motion_rev_day": 15.27585299
    }
  ]
}